{"spkid": "20415029", "covariance": {"epoch": "2459279.5", "labels": ["e", "q", "tp", "node", "peri", "i"], "data": [["1.445479601880027E-16", "-2.931161349432401E-16", "-3.341799499936279E-14", "-5.28358041183926E-15", "-2.535942648810715E-14", "-1.158374708207343E-15"], ["-2.931161349432401E-16", "5.955892863768751E-16", "6.491598273146438E-14", "1.085739754391838E-14", "5.132813913519731E-14", "2.451431477827171E-15"], ["-3.341799499936279E-14", "6.491598273146438E-14", "1.66137017995212E-11", "-1.069341571647833E-12", "9.867452109339195E-12", "-1.47681922402752E-12"], ["-5.28358041183926E-15", "1.085739754391838E-14", "-1.069341571647833E-12", "2.525068457850102E-12", "-3.016268162489335E-12", "2.119845106725552E-12"], ["-2.535942648810715E-14", "5.132813913519731E-14", "9.867452109339195E-12", "-3.016268162489335E-12", "1.157142066057724E-11", "-3.44367476644109E-12"], ["-1.158374708207343E-15", "2.451431477827171E-15", "-1.47681922402752E-12", "2.119845106725552E-12", "-3.44367476644109E-12", "4.937998044594482E-11"]], "elements": [{"label": "e", "units": null, "value": ".6528144724778316", "title": "eccentricity", "sigma": 1.20228099955045e-08, "name": "e"}, {"label": "q", "units": "au", "title": "perihelion distance", "value": ".7369821420327863", "sigma": 2.44046980390431e-08, "name": "q"}, {"label": "tp", "value": "2459313.604908729463", "title": "time of perihelion passage", "units": "TDB", "sigma": 4.07599089787026e-06, "name": "tp"}, {"units": "deg", "value": "275.5562131989658", "title": "longitude of the ascending node", "sigma": 1.58904639889781e-06, "name": "om", "label": "node"}, {"units": "deg", "title": "argument of perihelion", "value": "284.7765942071478", "name": "w", "sigma": 3.401679094297e-06, "label": "peri"}, {"label": "i", "name": "i", "sigma": 7.02708904497053e-06, "units": "deg", "title": "inclination", "value": "34.85115737895006"}]}, "elements": [{"value": ".6538340370565823", "title": "eccentricity", "units": null, "name": "e", "sigma": "1.1994E-8", "label": "e"}, {"label": "a", "name": "a", "sigma": "4.6367E-9", "units": "au", "value": "2.122315679584494", "title": "semi-major axis"}, {"title": "perihelion distance", "value": ".7346734508932804", "units": "au", "sigma": "2.4303E-8", "name": "q", "label": "q"}, {"name": "i", "sigma": "7.0189E-6", "title": "inclination; angle with respect to x-y ecliptic plane", "value": "34.88704303716548", "units": "deg", "label": "i"}, {"label": "node", "sigma": "1.6128E-6", "name": "om", "value": "275.3103584584288", "title": "longitude of the ascending node", "units": "deg"}, {"name": "w", "sigma": "3.4021E-6", "units": "deg", "title": "argument of perihelion", "value": "284.9799323868226", "label": "peri"}, {"sigma": "8.982E-7", "name": "ma", "units": "deg", "title": "mean anomaly", "value": "241.519497200173", "label": "M"}, {"units": "TDB", "title": "time of perihelion passage", "value": "2461572.170240422783", "sigma": "3.9139E-6", "name": "tp", "label": "tp"}, {"units": "d", "value": "1129.310590268675", "title": "sidereal orbital period", "sigma": "3.7009E-6", "name": "per", "label": "period"}, {"value": ".3187785566717763", "title": "mean motion", "units": "deg/d", "sigma": "1.0447E-9", "name": "n", "label": "n"}, {"units": "au", "value": "3.509957908275708", "title": "aphelion distance", "sigma": "7.6683E-9", "name": "ad", "label": "Q"}], "epoch": "2461200.5"}